start=new Date('2022-01-03T00:00:00.000Z').valueOf();
sats=[{"PERIAPSIS":"545.996","OBJECT_TYPE":"PAYLOAD","ELEMENT_SET_NO":"999","MEAN_MOTION_DOT":"0.00000934","BSTAR":"0.00008158700000","ECCENTRICITY":"0.00017580","EPOCH":"2022-01-02T14:45:15.772032","DECAY_DATE":null,"PERIOD":"95.592","SEMIMAJOR_AXIS":"6925.348","RA_OF_ASC_NODE":"141.9180","TIME_SYSTEM":"UTC","OBJECT_ID":"2020-055D","REF_FRAME":"TEME","NORAD_CAT_ID":"46030","EPHEMERIS_TYPE":"0","APOAPSIS":"548.431","TLE_LINE2":"2 46030  53.0530 141.9180 0001758  92.7277 267.3913 15.06400106 78683","INCLINATION":"53.0530","MEAN_MOTION":"15.06400106","MEAN_MOTION_DDOT":"0.0000000000000","ARG_OF_PERICENTER":"92.7277","REV_AT_EPOCH":"7868","COUNTRY_CODE":"US","CLASSIFICATION_TYPE":"U","SITE":"AFETR","TLE_LINE1":"1 46030U 20055D   22002.61476588  .00000934  00000-0  81587-4 0  9995","LAUNCH_DATE":"2020-08-07","MEAN_ELEMENT_THEORY":"SGP4","MEAN_ANOMALY":"267.3913","FILE":"3255248","GP_ID":"192917221","OBJECT_NAME":"STARLINK-1534","RCS_SIZE":"LARGE","CENTER_NAME":"EARTH"},{"OBJECT_NAME":"STARLINK-1544","FILE":"3255248","GP_ID":"192917473","CENTER_NAME":"EARTH","RCS_SIZE":"LARGE","TLE_LINE1":"1 46031U 20055E   22002.61845901  .00000495  00000-0  52186-4 0  9990","SITE":"AFETR","LAUNCH_DATE":"2020-08-07","MEAN_ELEMENT_THEORY":"SGP4","MEAN_ANOMALY":"267.4454","ARG_OF_PERICENTER":"92.6795","REV_AT_EPOCH":"7871","MEAN_MOTION_DDOT":"0.0000000000000","CLASSIFICATION_TYPE":"U","COUNTRY_CODE":"US","TLE_LINE2":"2 46031  53.0542 141.9066 0002273  92.6795 267.4454 15.06395519 78713","APOAPSIS":"548.801","MEAN_MOTION":"15.06395519","INCLINATION":"53.0542","EPHEMERIS_TYPE":"0","REF_FRAME":"TEME","NORAD_CAT_ID":"46031","DECAY_DATE":null,"EPOCH":"2022-01-02T14:50:34.858464","OBJECT_ID":"2020-055E","PERIOD":"95.592","SEMIMAJOR_AXIS":"6925.362","RA_OF_ASC_NODE":"141.9066","TIME_SYSTEM":"UTC","MEAN_MOTION_DOT":"0.00000495","ECCENTRICITY":"0.00022730","BSTAR":"0.00005218600000","OBJECT_TYPE":"PAYLOAD","PERIAPSIS":"545.653","ELEMENT_SET_NO":"999"},{"PERIAPSIS":"545.902","OBJECT_TYPE":"PAYLOAD","ELEMENT_SET_NO":"999","BSTAR":"0.00012661000000","MEAN_MOTION_DOT":"0.00001605","ECCENTRICITY":"0.00018940","DECAY_DATE":null,"EPOCH":"2022-01-02T18:44:06.983232","OBJECT_ID":"2020-055F","SEMIMAJOR_AXIS":"6925.349","PERIOD":"95.592","RA_OF_ASC_NODE":"141.1735","TIME_SYSTEM":"UTC","EPHEMERIS_TYPE":"0","REF_FRAME":"TEME","NORAD_CAT_ID":"46032","TLE_LINE2":"2 46032  53.0532 141.1735 0001894  98.1467 261.9737 15.06399874 78758","APOAPSIS":"548.526","MEAN_MOTION":"15.06399874","INCLINATION":"53.0532","ARG_OF_PERICENTER":"98.1467","REV_AT_EPOCH":"7875","MEAN_MOTION_DDOT":"0.0000000000000","CLASSIFICATION_TYPE":"U","COUNTRY_CODE":"US","TLE_LINE1":"1 46032U 20055F   22002.78063638  .00001605  00000-0  12661-3 0  9995","SITE":"AFETR","LAUNCH_DATE":"2020-08-07","MEAN_ANOMALY":"261.9737","MEAN_ELEMENT_THEORY":"SGP4","OBJECT_NAME":"STARLINK-1555","GP_ID":"192942715","FILE":"3255249","CENTER_NAME":"EARTH","RCS_SIZE":"LARGE"},{"RCS_SIZE":"LARGE","CENTER_NAME":"EARTH","GP_ID":"192942464","FILE":"3255249","OBJECT_NAME":"STARLINK-1556","LAUNCH_DATE":"2020-08-07","MEAN_ANOMALY":"264.6318","MEAN_ELEMENT_THEORY":"SGP4","SITE":"AFETR","TLE_LINE1":"1 46033U 20055G   22002.76220378  .00000382  00000-0  44585-4 0  9992","COUNTRY_CODE":"US","CLASSIFICATION_TYPE":"U","MEAN_MOTION_DDOT":"0.0000000000000","ARG_OF_PERICENTER":"95.4870","REV_AT_EPOCH":"7872","INCLINATION":"53.0550","MEAN_MOTION":"15.06395627","APOAPSIS":"548.435","TLE_LINE2":"2 46033  53.0550 141.2641 0001744  95.4870 264.6318 15.06395627 78722","REF_FRAME":"TEME","NORAD_CAT_ID":"46033","EPHEMERIS_TYPE":"0","PERIOD":"95.592","RA_OF_ASC_NODE":"141.2641","SEMIMAJOR_AXIS":"6925.362","TIME_SYSTEM":"UTC","OBJECT_ID":"2020-055G","EPOCH":"2022-01-02T18:17:34.406592","DECAY_DATE":null,"ECCENTRICITY":"0.00017440","MEAN_MOTION_DOT":"0.00000382","BSTAR":"0.00004458500000","ELEMENT_SET_NO":"999","OBJECT_TYPE":"PAYLOAD","PERIAPSIS":"546.019"},{"ELEMENT_SET_NO":"999","OBJECT_TYPE":"PAYLOAD","PERIAPSIS":"545.929","ECCENTRICITY":"0.00018560","MEAN_MOTION_DOT":"0.00001413","BSTAR":"0.00011373000000","OBJECT_ID":"2020-055H","TIME_SYSTEM":"UTC","PERIOD":"95.592","SEMIMAJOR_AXIS":"6925.349","RA_OF_ASC_NODE":"140.6612","DECAY_DATE":null,"EPOCH":"2022-01-02T21:33:57.623040","EPHEMERIS_TYPE":"0","NORAD_CAT_ID":"46034","REF_FRAME":"TEME","MEAN_MOTION":"15.06399791","INCLINATION":"53.0544","TLE_LINE2":"2 46034  53.0544 140.6612 0001856  93.3315 266.7887 15.06399791 78744","APOAPSIS":"548.500","CLASSIFICATION_TYPE":"U","COUNTRY_CODE":"US","REV_AT_EPOCH":"7874","ARG_OF_PERICENTER":"93.3315","MEAN_MOTION_DDOT":"0.0000000000000","MEAN_ELEMENT_THEORY":"SGP4","MEAN_ANOMALY":"266.7887","LAUNCH_DATE":"2020-08-07","TLE_LINE1":"1 46034U 20055H   22002.89858360  .00001413  00000-0  11373-3 0  9999","SITE":"AFETR","CENTER_NAME":"EARTH","RCS_SIZE":"LARGE","OBJECT_NAME":"STARLINK-1557","GP_ID":"192941714","FILE":"3255249"},{"ECCENTRICITY":"0.00021760","MEAN_MOTION_DOT":"0.00001275","BSTAR":"0.00010451000000","ELEMENT_SET_NO":"999","OBJECT_TYPE":"PAYLOAD","PERIAPSIS":"545.719","EPHEMERIS_TYPE":"0","REF_FRAME":"TEME","NORAD_CAT_ID":"46035","OBJECT_ID":"2020-055J","PERIOD":"95.592","SEMIMAJOR_AXIS":"6925.360","RA_OF_ASC_NODE":"141.5070","TIME_SYSTEM":"UTC","DECAY_DATE":null,"EPOCH":"2022-01-02T16:57:57.561408","CLASSIFICATION_TYPE":"U","COUNTRY_CODE":"US","ARG_OF_PERICENTER":"98.6480","REV_AT_EPOCH":"7874","MEAN_MOTION_DDOT":"0.0000000000000","MEAN_MOTION":"15.06396107","INCLINATION":"53.0534","TLE_LINE2":"2 46035  53.0534 141.5070 0002176  98.6480 261.4755 15.06396107 78743","APOAPSIS":"548.732","CENTER_NAME":"EARTH","RCS_SIZE":"LARGE","OBJECT_NAME":"STARLINK-1558","FILE":"3255249","GP_ID":"192941964","LAUNCH_DATE":"2020-08-07","MEAN_ELEMENT_THEORY":"SGP4","MEAN_ANOMALY":"261.4755","TLE_LINE1":"1 46035U 20055J   22002.70691622  .00001275  00000-0  10451-3 0  9998","SITE":"AFETR"},{"MEAN_MOTION":"15.06399830","INCLINATION":"53.0537","TLE_LINE2":"2 46036  53.0537 141.5697 0001796  94.2787 265.8408 15.06399830 78740","APOAPSIS":"548.458","CLASSIFICATION_TYPE":"U","COUNTRY_CODE":"US","REV_AT_EPOCH":"7874","ARG_OF_PERICENTER":"94.2787","MEAN_MOTION_DDOT":"0.0000000000000","MEAN_ANOMALY":"265.8408","MEAN_ELEMENT_THEORY":"SGP4","LAUNCH_DATE":"2020-08-07","TLE_LINE1":"1 46036U 20055K   22002.69217136  .00001652  00000-0  12977-3 0  9995","SITE":"AFETR","CENTER_NAME":"EARTH","RCS_SIZE":"LARGE","OBJECT_NAME":"STARLINK-1560","FILE":"3255249","GP_ID":"192942215","ELEMENT_SET_NO":"999","PERIAPSIS":"545.970","OBJECT_TYPE":"PAYLOAD","ECCENTRICITY":"0.00017960","MEAN_MOTION_DOT":"0.00001652","BSTAR":"0.00012977000000","OBJECT_ID":"2020-055K","TIME_SYSTEM":"UTC","RA_OF_ASC_NODE":"141.5697","PERIOD":"95.592","SEMIMAJOR_AXIS":"6925.349","DECAY_DATE":null,"EPOCH":"2022-01-02T16:36:43.605504","EPHEMERIS_TYPE":"0","NORAD_CAT_ID":"46036","REF_FRAME":"TEME"},{"REF_FRAME":"TEME","NORAD_CAT_ID":"46037","EPHEMERIS_TYPE":"0","EPOCH":"2022-01-02T14:55:53.617440","DECAY_DATE":null,"PERIOD":"95.593","SEMIMAJOR_AXIS":"6925.392","RA_OF_ASC_NODE":"141.9023","TIME_SYSTEM":"UTC","OBJECT_ID":"2020-055L","MEAN_MOTION_DOT":"-0.00000585","BSTAR":"-0.00002040300000","ECCENTRICITY":"0.00020490","OBJECT_TYPE":"PAYLOAD","PERIAPSIS":"545.838","ELEMENT_SET_NO":"999","GP_ID":"192916472","FILE":"3255248","OBJECT_NAME":"STARLINK-1565","RCS_SIZE":"LARGE","CENTER_NAME":"EARTH","SITE":"AFETR","TLE_LINE1":"1 46037U 20055L   22002.62214835 -.00000585  00000-0 -20403-4 0  9992","LAUNCH_DATE":"2020-08-07","MEAN_ANOMALY":"262.1983","MEAN_ELEMENT_THEORY":"SGP4","MEAN_MOTION_DDOT":"0.0000000000000","ARG_OF_PERICENTER":"97.9238","REV_AT_EPOCH":"7872","COUNTRY_CODE":"US","CLASSIFICATION_TYPE":"U","APOAPSIS":"548.676","TLE_LINE2":"2 46037  53.0549 141.9023 0002049  97.9238 262.1983 15.06385893 78724","MEAN_MOTION":"15.06385893","INCLINATION":"53.0549"},{"RCS_SIZE":"LARGE","CENTER_NAME":"EARTH","GP_ID":"192941214","FILE":"3255249","OBJECT_NAME":"STARLINK-1567","MEAN_ELEMENT_THEORY":"SGP4","MEAN_ANOMALY":"261.0399","LAUNCH_DATE":"2020-08-07","SITE":"AFETR","TLE_LINE1":"1 46038U 20055M   22002.70323284  .00001835  00000-0  14211-3 0  9997","COUNTRY_CODE":"US","CLASSIFICATION_TYPE":"U","MEAN_MOTION_DDOT":"0.0000000000000","REV_AT_EPOCH":"7873","ARG_OF_PERICENTER":"99.0859","INCLINATION":"53.0545","MEAN_MOTION":"15.06398267","APOAPSIS":"548.862","TLE_LINE2":"2 46038  53.0545 141.5376 0002372  99.0859 261.0399 15.06398267 78738","NORAD_CAT_ID":"46038","REF_FRAME":"TEME","EPHEMERIS_TYPE":"0","TIME_SYSTEM":"UTC","PERIOD":"95.592","RA_OF_ASC_NODE":"141.5376","SEMIMAJOR_AXIS":"6925.354","OBJECT_ID":"2020-055M","EPOCH":"2022-01-02T16:52:39.317376","DECAY_DATE":null,"MEAN_MOTION_DOT":"0.00001835","ECCENTRICITY":"0.00023720","BSTAR":"0.00014211000000","ELEMENT_SET_NO":"999","PERIAPSIS":"545.576","OBJECT_TYPE":"PAYLOAD"},{"RA_OF_ASC_NODE":"141.5045","PERIOD":"95.592","SEMIMAJOR_AXIS":"6925.357","TIME_SYSTEM":"UTC","OBJECT_ID":"2020-055N","EPOCH":"2022-01-02T17:03:16.319520","DECAY_DATE":null,"REF_FRAME":"TEME","NORAD_CAT_ID":"46039","EPHEMERIS_TYPE":"0","ELEMENT_SET_NO":"999","OBJECT_TYPE":"PAYLOAD","PERIAPSIS":"545.886","ECCENTRICITY":"0.00019280","MEAN_MOTION_DOT":"0.00001334","BSTAR":"0.00010844000000","LAUNCH_DATE":"2020-08-07","MEAN_ELEMENT_THEORY":"SGP4","MEAN_ANOMALY":"262.0126","SITE":"AFETR","TLE_LINE1":"1 46039U 20055N   22002.71060555  .00001334  00000-0  10844-3 0  9990","RCS_SIZE":"LARGE","CENTER_NAME":"EARTH","FILE":"3255249","GP_ID":"192941464","OBJECT_NAME":"STARLINK-1569","INCLINATION":"53.0543","MEAN_MOTION":"15.06397343","APOAPSIS":"548.557","TLE_LINE2":"2 46039  53.0543 141.5045 0001928  98.1082 262.0126 15.06397343 78737","COUNTRY_CODE":"US","CLASSIFICATION_TYPE":"U","MEAN_MOTION_DDOT":"0.0000000000000","ARG_OF_PERICENTER":"98.1082","REV_AT_EPOCH":"7873"}];
